TYVAK-0172              
1 46267U 20059C   26068.62538449  .00278441  00000+0  21652-2 0  9997
2 46267  97.7214 311.0561 0003543  67.1132 293.0503 15.70916107303116
STARLINK-11429 [DTC]    
1 62061U 24217E   26068.37864409  .00173711  00000+0  14060-2 0  9996
2 62061  53.1571  72.8661 0001586  99.3523 260.7675 15.69758130 75123
